NORAD_CAT_ID,OBJECT_NAME,OBJECT_TYPE,EPOCH,MEAN_MOTION,ECCENTRICITY,INCLINATION,RA_OF_ASC_NODE,ARG_OF_PERICENTER,MEAN_ANOMALY,BSTAR,MEAN_MOTION_DOT,MEAN_MOTION_DDOT,TLE_LINE0,TLE_LINE1,TLE_LINE2,SEMIMAJOR_AXIS,PERIOD,APOGEE,PERIGEE,DECAYED
55923.0,STARLINK-5854,PAYLOAD,2023-04-17 22:00:00,15.57085476,0.0003738,69.999,93.681,266.8353,134.8737,-0.014225,-0.00937676,0.0,0 STARLINK-5854,1 55923U 23037K   23107.91667824 -.00937676  00000-0 -14225-1 0  9990,2 55923  69.9990  93.6810 0003738 266.8353 134.8737 15.57085476  5410,6774.234,92.48,398.631,393.567,0.0
55923.0,STARLINK-5854,PAYLOAD,2023-04-18 14:00:01,15.55771912,0.0003191,69.9986,91.8436,270.1102,265.8548,-0.015051,-0.0094385,0.0,0 STARLINK-5854,1 55923U 23037K   23108.58334491 -.00943850  00000-0 -15051-1 0  9994,2 55923  69.9986  91.8436 0003191 270.1102 265.8548 15.55771912  1306,6778.047,92.559,402.075,397.749,0.0
55923.0,STARLINK-5854,PAYLOAD,2023-04-18 22:00:00,15.55118872,0.000329,69.9989,90.9265,261.8165,340.0911,-0.015007,-0.00920928,0.0,0 STARLINK-5854,1 55923U 23037K   23108.91667824 -.00920928  00000-0 -15007-1 0  9992,2 55923  69.9989  90.9265 0003290 261.8165 340.0911 15.55118872  1305,6779.944,92.597,404.04,399.579,0.0
55923.0,STARLINK-5854,PAYLOAD,2023-04-19 06:00:00,15.54424437,0.000334,69.999,90.01,271.0143,36.08,-0.014436,-0.00868438,0.0,0 STARLINK-5854,1 55923U 23037K   23109.25001157 -.00868438  00000-0 -14436-1 0  9993,2 55923  69.9990  90.0100 0003340 271.0143  36.0800 15.54424437  5625,6781.963,92.639,406.093,401.563,0.0
55923.0,STARLINK-5854,PAYLOAD,2023-04-19 14:00:01,15.53809252,0.0003347,69.9989,89.0946,271.9816,99.4873,-0.016034,-0.00936207,0.0,0 STARLINK-5854,1 55923U 23037K   23109.58334491 -.00936207  00000-0 -16034-1 0  9995,2 55923  69.9989  89.0946 0003347 271.9816  99.4873 15.53809252  1307,6783.753,92.675,407.889,403.348,0.0
55923.0,STARLINK-5854,PAYLOAD,2023-04-19 22:00:00,15.53165634,0.0003386,69.9993,88.1804,268.4788,166.5828,-0.016229,-0.00926593,0.0,0 STARLINK-5854,1 55923U 23037K   23109.91667824 -.00926593  00000-0 -16229-1 0  9994,2 55923  69.9993  88.1804 0003386 268.4788 166.5828 15.53165634  5722,6785.627,92.714,409.79,405.195,0.0
55923.0,STARLINK-5854,PAYLOAD,2023-04-20 14:00:01,15.51768484,0.0003404,69.9991,86.3541,272.2978,287.6467,-0.012978,-0.0071134,0.0,0 STARLINK-5854,1 55923U 23037K   23110.58334491 -.00711340  00000-0 -12978-1 0  9999,2 55923  69.9991  86.3541 0003404 272.2978 287.6467 15.51768484  1307,6789.7,92.797,413.876,409.253,0.0
55923.0,STARLINK-5854,PAYLOAD,2023-04-20 20:00:01,15.5120921,0.0003512,69.9993,85.6702,266.5745,249.385,0.00080643,0.00047464,0.0,0 STARLINK-5854,1 55923U 23037K   23110.83334491  .00047464  00000-0  80643-3 0  9990,2 55923  69.9993  85.6702 0003512 266.5745 249.3850 15.51209210  5861,6791.331,92.831,415.582,410.811,0.0
55923.0,STARLINK-5854,PAYLOAD,2023-04-20 22:00:00,15.51235875,0.0003526,69.9996,85.4424,266.2181,354.9616,3.5166e-06,4.2e-07,0.0,0 STARLINK-5854,1 55923U 23037K   23110.91667824  .00000042  00000-0  35166-5 0  9991,2 55923  69.9996  85.4424 0003526 266.2181 354.9616 15.51235875  1303,6791.254,92.829,415.513,410.724,0.0
55923.0,STARLINK-5854,PAYLOAD,2023-04-21 06:00:00,15.51201922,0.0003543,70.0001,84.5326,273.1829,48.9319,0.00043516,0.00025459,0.0,0 STARLINK-5854,1 55923U 23037K   23111.25001157  .00025459  00000-0  43516-3 0  9995,2 55923  70.0001  84.5326 0003543 273.1829  48.9319 15.51201922  5938,6791.353,92.831,415.624,410.812,0.0
55923.0,STARLINK-5854,PAYLOAD,2023-04-21 14:00:01,15.51237487,0.0003539,69.9996,83.6197,269.8631,113.148,-0.0006317,-0.00037116,0.0,0 STARLINK-5854,1 55923U 23037K   23111.58334491 -.00037116  00000-0 -63170-3 0  9994,2 55923  69.9996  83.6197 0003539 269.8631 113.1480 15.51237487  1308,6791.249,92.829,415.517,410.71,0.0
55923.0,STARLINK-5854,PAYLOAD,2023-04-21 22:00:00,15.5123874,0.0003505,70.0,82.7083,264.9915,178.9355,-0.00025056,-0.00014863,0.0,0 STARLINK-5854,1 55923U 23037K   23111.91667824 -.00014863  00000-0 -25056-3 0  9995,2 55923  70.0000  82.7083 0003505 264.9915 178.9355 15.51238740  1308,6791.245,92.829,415.491,410.73,0.0
55923.0,STARLINK-5854,PAYLOAD,2023-04-22 06:00:00,15.51202845,0.0003457,70.0,81.797,271.0044,233.8512,0.00059104,0.00034679,0.0,0 STARLINK-5854,1 55923U 23037K   23112.25001157  .00034679  00000-0  59104-3 0  9990,2 55923  70.0000  81.7970 0003457 271.0044 233.8512 15.51202845  6083,6791.35,92.831,415.563,410.867,0.0
55923.0,STARLINK-5854,PAYLOAD,2023-04-22 14:00:01,15.51249738,0.0003345,70.0,80.8857,267.9612,297.797,-0.0013238,-0.00077242,0.0,0 STARLINK-5854,1 55923U 23037K   23112.58334491 -.00077242  00000-0 -13238-2 0  9998,2 55923  70.0000  80.8857 0003345 267.9612 297.7970 15.51249738  1307,6791.213,92.828,415.35,410.806,0.0
55923.0,STARLINK-5854,PAYLOAD,2023-04-22 22:00:01,15.5122529,0.000339,70.0004,79.9747,261.8792,4.8452,0.00035936,0.00021001,0.0,0 STARLINK-5854,1 55923U 23037K   23112.91668981  .00021001  00000-0  35936-3 0  9999,2 55923  70.0004  79.9747 0003390 261.8792   4.8452 15.51225290  1309,6791.284,92.83,415.452,410.847,0.0
55923.0,STARLINK-5854,PAYLOAD,2023-04-23 14:00:01,15.51251365,0.0003374,70.0001,78.152,263.5801,124.9105,-0.0010288,-0.00060198,0.0,0 STARLINK-5854,1 55923U 23037K   23113.58334491 -.00060198  00000-0 -10288-2 0  9993,2 55923  70.0001  78.1520 0003374 263.5801 124.9105 15.51251365  1309,6791.208,92.828,415.365,410.782,0.0
55923.0,STARLINK-5854,PAYLOAD,2023-04-23 20:00:01,15.5120754,0.000344,70.0002,77.4686,259.2568,84.9285,0.00086021,0.00050658,0.0,0 STARLINK-5854,1 55923U 23037K   23113.83334491  .00050658  00000-0  86021-3 0  9998,2 55923  70.0002  77.4686 0003440 259.2568  84.9285 15.51207540  6339,6791.336,92.831,415.538,410.865,0.0
55923.0,STARLINK-5854,PAYLOAD,2023-04-23 22:00:00,15.5124779,0.0003415,70.0005,77.2407,259.4413,189.9597,-0.00039502,-0.0002332,0.0,0 STARLINK-5854,1 55923U 23037K   23113.91667824 -.00023320  00000-0 -39502-3 0  9996,2 55923  70.0005  77.2407 0003415 259.4413 189.9597 15.51247790  1309,6791.219,92.828,415.403,410.765,0.0
55923.0,STARLINK-5854,PAYLOAD,2023-04-24 06:54:06,15.51236922,0.0003359,69.9978,76.2265,264.6761,95.4042,3.7638e-05,2.047e-05,0.0,0 STARLINK-5854,1 55923U 23037K   23114.28757181  .00002047  00000-0  37638-4 0  9993,2 55923  69.9978  76.2265 0003359 264.6761  95.4042 15.51236922  6404,6791.251,92.829,415.397,410.834,0.0
55923.0,STARLINK-5854,PAYLOAD,2023-04-25 07:39:51,15.51207493,0.0003442,69.9978,73.4037,257.7684,102.3117,-2.5131e-06,-3.12e-06,0.0,0 STARLINK-5854,1 55923U 23037K   23115.31934808 -.00000312  00000-0 -25131-5 0  9992,2 55923  69.9978  73.4037 0003442 257.7684 102.3117 15.51207493  6569,6791.336,92.831,415.539,410.864,0.0
55923.0,STARLINK-5854,PAYLOAD,2023-04-26 06:52:41,15.51240534,0.0003239,69.9986,70.7613,265.5359,94.5457,1.5257e-05,7.32e-06,0.0,0 STARLINK-5854,1 55923U 23037K   23116.28659409  .00000732  00000-0  15257-4 0  9991,2 55923  69.9986  70.7613 0003239 265.5359  94.5457 15.51240534  6379,6791.24,92.829,415.305,410.905,0.0
55923.0,STARLINK-5854,PAYLOAD,2023-04-27 06:05:33,15.51201938,0.0004047,70.0019,68.1193,311.4399,48.644,1.1386e-05,5.03e-06,0.0,0 STARLINK-5854,1 55923U 23037K   23117.25386497  .00000503  00000-0  11386-4 0  9998,2 55923  70.0019  68.1193 0004047 311.4399  48.6440 15.51201938  6867,6791.353,92.831,415.966,410.469,0.0
55923.0,STARLINK-5854,PAYLOAD,2023-04-27 20:03:52,15.49683988,0.0003363,69.9982,66.5361,271.6182,88.4618,-0.0031234,-0.00170213,0.0,0 STARLINK-5854,1 55923U 23037K   23117.83602695 -.00170213  00000-0 -31234-2 0  9993,2 55923  69.9982  66.5361 0003363 271.6182  88.4618 15.49683988  6954,6795.787,92.922,419.937,415.366,0.0
55923.0,STARLINK-5854,PAYLOAD,2023-04-27 23:09:57,15.49510925,0.0002977,69.9979,66.1848,270.0551,90.0293,-0.0034483,-0.00186369,0.0,0 STARLINK-5854,1 55923U 23037K   23117.96525287 -.00186369  00000-0 -34483-2 0  9996,2 55923  69.9979  66.1848 0002977 270.0551  90.0293 15.49510925  6979,6796.293,92.933,420.181,416.135,0.0
55923.0,STARLINK-5854,PAYLOAD,2023-04-28 14:00:01,15.47021502,0.0003225,70.0002,64.5002,269.0684,297.0693,-0.018868,-0.00871094,0.0,0 STARLINK-5854,1 55923U 23037K   23118.58334491 -.00871094  00000-0 -18868-1 0  9994,2 55923  70.0002  64.5002 0003225 269.0684 297.0693 15.47021502  7065,6803.582,93.082,427.641,423.253,0.0
55923.0,STARLINK-5854,PAYLOAD,2023-04-29 06:00:00,15.45722167,0.0003423,70.0,62.6905,273.8212,42.5407,-0.019716,-0.00881943,0.0,0 STARLINK-5854,1 55923U 23037K   23119.25001157 -.00881943  00000-0 -19716-1 0  9996,2 55923  70.0000  62.6905 0003423 273.8212  42.5407 15.45722167  7175,6807.394,93.16,431.589,426.929,0.0
55923.0,STARLINK-5854,PAYLOAD,2023-04-29 14:00:01,15.45058111,0.0003475,70.0,61.7868,268.0501,102.3243,-0.019941,-0.00861311,0.0,0 STARLINK-5854,1 55923U 23037K   23119.58335648 -.00861311  00000-0 -19941-1 0  9994,2 55923  70.0000  61.7868 0003475 268.0501 102.3243 15.45058111  1300,6809.344,93.2,433.576,428.843,0.0
55923.0,STARLINK-5854,PAYLOAD,2023-04-29 22:00:00,15.44463366,0.0003562,70.0004,60.8844,266.7848,156.6639,-0.022575,-0.00960236,0.0,0 STARLINK-5854,1 55923U 23037K   23119.91667824 -.00960236  00000-0 -22575-1 0  9998,2 55923  70.0004  60.8844 0003562 266.7848 156.6639 15.44463366  7278,6811.092,93.236,435.383,430.531,0.0
55923.0,STARLINK-5854,PAYLOAD,2023-04-30 14:00:01,15.43104493,0.0003389,70.0001,59.0817,267.1652,260.2718,-0.021378,-0.00875195,0.0,0 STARLINK-5854,1 55923U 23037K   23120.58334491 -.00875195  00000-0 -21378-1 0  9993,2 55923  70.0001  59.0817 0003389 267.1652 260.2718 15.43104493  7373,6815.09,93.318,439.265,434.646,0.0
55923.0,STARLINK-5854,PAYLOAD,2023-05-01 06:00:00,15.41807674,0.0003465,70.0005,57.2827,272.344,355.9292,-0.022423,-0.00878549,0.0,0 STARLINK-5854,1 55923U 23037K   23121.25001157 -.00878549  00000-0 -22423-1 0  9996,2 55923  70.0005  57.2827 0003465 272.3440 355.9292 15.41807674  7486,6818.911,93.397,443.139,438.414,0.0
